[{"OBJECT_NAME":"STARLINK-32168","OBJECT_ID":"2024-136G","EPOCH":"2026-03-09T10:26:00.272832","MEAN_MOTION":15.30217641,"ECCENTRICITY":0.00012883,"INCLINATION":53.1605,"RA_OF_ASC_NODE":76.9813,"ARG_OF_PERICENTER":87.3744,"MEAN_ANOMALY":272.7404,"EPHEMERIS_TYPE":0,"CLASSIFICATION_TYPE":"U","NORAD_CAT_ID":60335,"ELEMENT_SET_NO":999,"REV_AT_EPOCH":8962,"BSTAR":0.00013864454,"MEAN_MOTION_DOT":3.751e-5,"MEAN_MOTION_DDOT":0},{"OBJECT_NAME":"OBJECT B","OBJECT_ID":"2024-153B","EPOCH":"2026-03-09T23:15:18.632160","MEAN_MOTION":15.30512917,"ECCENTRICITY":0.00113423,"INCLINATION":97.6622,"RA_OF_ASC_NODE":204.9195,"ARG_OF_PERICENTER":149.8438,"MEAN_ANOMALY":210.3457,"EPHEMERIS_TYPE":0,"CLASSIFICATION_TYPE":"U","NORAD_CAT_ID":60746,"ELEMENT_SET_NO":999,"REV_AT_EPOCH":8476,"BSTAR":0.00066193599,"MEAN_MOTION_DOT":0.00019515,"MEAN_MOTION_DDOT":0}]
